[{"OBJECT_NAME":"STARLINK-5910","OBJECT_ID":"2023-042Q","EPOCH":"2026-03-09T22:55:07.408704","MEAN_MOTION":15.02514873,"ECCENTRICITY":0.00013502,"INCLINATION":43.004,"RA_OF_ASC_NODE":54.3772,"ARG_OF_PERICENTER":276.301,"MEAN_ANOMALY":83.7679,"EPHEMERIS_TYPE":0,"CLASSIFICATION_TYPE":"U","NORAD_CAT_ID":56000,"ELEMENT_SET_NO":999,"REV_AT_EPOCH":16295,"BSTAR":-0.00016727144,"MEAN_MOTION_DOT":-2.461e-5,"MEAN_MOTION_DDOT":0},{"OBJECT_NAME":"UNKNOWN","OBJECT_ID":"","EPOCH":"2026-03-08T16:53:53.910816","MEAN_MOTION":15.05228096,"ECCENTRICITY":0.0007208,"INCLINATION":85.8751,"RA_OF_ASC_NODE":153.385,"ARG_OF_PERICENTER":323.4201,"MEAN_ANOMALY":36.654,"EPHEMERIS_TYPE":0,"CLASSIFICATION_TYPE":"U","NORAD_CAT_ID":81343,"ELEMENT_SET_NO":999,"REV_AT_EPOCH":46724,"BSTAR":0.00071714,"MEAN_MOTION_DOT":0.00010274,"MEAN_MOTION_DDOT":0}]
